OBJECT_NAME,OBJECT_ID,EPOCH,MEAN_MOTION,ECCENTRICITY,INCLINATION,RA_OF_ASC_NODE,ARG_OF_PERICENTER,MEAN_ANOMALY,EPHEMERIS_TYPE,CLASSIFICATION_TYPE,NORAD_CAT_ID,ELEMENT_SET_NO,REV_AT_EPOCH,BSTAR,MEAN_MOTION_DOT,MEAN_MOTION_DDOT
STARLINK-36768,2026-032G,2026-07-21T02:35:46.474656,15.33446394,.00021113,97.2859,29.3343,83.0767,277.0716,0,U,67803,999,2540,.28555966E-3,.9156E-4,0
STARLINK-36792,2026-032H,2026-07-21T01:05:43.397088,15.33443570,.00023901,97.2867,29.2656,86.7941,273.3575,0,U,67804,999,2539,.25459983E-3,.8153E-4,0
STARLINK-36782,2026-032J,2026-07-21T11:08:40.628832,15.33456788,.00017167,97.2872,29.7692,87.8220,272.3219,0,U,67805,999,2546,.41783333E-3,.13443E-3,0
STARLINK-36389,2026-032K,2026-07-21T11:39:59.875488,15.33464186,.00018605,97.2874,29.7389,87.0550,273.0906,0,U,67806,999,2546,.52912357E-3,.17056E-3,0
STARLINK-36382,2026-032L,2026-07-21T11:36:05.134464,15.33458019,.00016345,97.2870,29.7404,78.1237,282.0189,0,U,67807,999,2546,.49817556E-3,.16049E-3,0
STARLINK-36811,2026-032M,2026-07-21T01:48:47.319552,15.33452595,.00013748,97.2865,29.3787,55.7636,304.3737,0,U,67808,999,2540,.4453233E-3,.14332E-3,0
STARLINK-36795,2026-032N,2026-07-21T00:53:58.665120,15.33448123,.00018475,97.2866,29.2784,89.5296,270.6158,0,U,67809,999,2539,.39386973E-3,.12663E-3,0
STARLINK-36807,2026-032P,2026-07-21T01:52:42.124512,15.33452320,.00010321,97.2871,29.3730,70.4961,289.6393,0,U,67810,999,2540,.3650433E-3,.11731E-3,0
STARLINK-36733,2026-032Q,2026-07-21T10:56:55.913280,15.33452936,.00016981,97.2872,29.7804,89.2983,270.8454,0,U,67811,999,2546,.34792305E-3,.11177E-3,0
STARLINK-36377,2026-032R,2026-07-21T06:11:06.728928,15.33452885,.00018357,97.2881,29.5880,93.1662,266.9791,0,U,67812,999,2543,.34155586E-3,.10971E-3,0
STARLINK-36732,2026-032S,2026-07-21T11:00:50.916096,15.33457594,.00018511,97.2861,29.7748,79.2747,280.8704,0,U,67813,999,2546,.35794934E-3,.11503E-3,0
STARLINK-36767,2026-032T,2026-07-21T02:20:06.285408,15.33445784,.00007932,97.2881,29.3492,144.6765,215.4530,0,U,67814,999,2540,.19962421E-3,.6375E-4,0
STARLINK-36797,2026-032U,2026-07-21T02:00:32.328864,15.33446303,.00021719,97.2864,29.3639,77.7003,282.4483,0,U,67815,999,2540,.32691503E-3,.10494E-3,0
STARLINK-36343,2026-032V,2026-07-21T01:25:17.589504,15.33453818,.00012462,97.2840,29.4002,90.8251,269.3134,0,U,67816,999,2540,.341856E-3,.1098E-3,0
STARLINK-36756,2026-032W,2026-07-21T06:22:51.807360,15.33445398,.00018853,97.2871,29.5802,88.8288,271.3170,0,U,67817,999,2542,.32840096E-3,.10542E-3,0
STARLINK-36346,2026-032X,2026-07-21T01:21:22.817376,15.33450864,.00014634,97.2860,29.4030,90.4982,269.6428,0,U,67818,999,2540,.35129304E-3,.11285E-3,0
STARLINK-36788,2026-032Y,2026-07-21T11:28:15.164256,15.33454997,.00016534,97.2873,29.7499,98.6050,261.5380,0,U,67819,999,2546,.42662798E-3,.13728E-3,0
STARLINK-36353,2026-032Z,2026-07-21T11:20:25.486080,15.33454780,.00016602,97.2873,29.7569,90.2201,269.9232,0,U,67820,999,2546,.4332437E-3,.13942E-3,0
STARLINK-36644,2026-033A,2026-07-21T01:40:27.709824,15.27585867,.00013995,43.0013,233.7213,285.6930,74.3768,0,U,67821,999,2507,.33900974E-3,.908E-4,0
STARLINK-36643,2026-033B,2026-07-21T03:51:36.392832,15.27590284,.0001692,42.9986,233.5536,266.9018,93.1640,0,U,67822,999,2508,.33431925E-3,.8952E-4,0
STARLINK-36646,2026-033C,2026-07-21T09:40:28.876800,15.27588180,.00014454,43.0027,231.9250,270.3027,89.7659,0,U,67823,999,2512,.3563526E-3,.9559E-4,0
STARLINK-36647,2026-033D,2026-07-21T09:25:40.693440,15.27591676,.00007213,42.9997,231.8487,266.6742,93.4027,0,U,67824,999,2512,.36261665E-3,.9733E-4,0
STARLINK-36648,2026-033E,2026-07-21T02:43:08.322528,15.27584802,.00011396,42.9984,233.1694,259.0620,101.0104,0,U,67825,999,2508,.43143573E-3,.11631E-3,0
STARLINK-35865,2026-033F,2026-07-21T11:10:55.986528,15.27591746,.00015243,43.0007,231.5327,266.8642,93.2035,0,U,67826,999,2513,.49625694E-3,.13424E-3,0
STARLINK-36289,2026-033G,2026-07-21T04:00:51.754752,15.27588759,.000149,42.9996,233.5992,271.9094,88.1587,0,U,67827,999,2508,.37135858E-3,.9973E-4,0
STARLINK-36670,2026-033H,2026-07-21T10:11:55.905504,15.27601802,.00019409,43.0000,232.0891,264.8242,95.2389,0,U,67828,999,2512,.5877923E-3,.15959E-3,0
STARLINK-36144,2026-033J,2026-07-21T11:38:41.135712,15.27594364,.00020671,43.0016,231.6821,281.9945,78.0675,0,U,67829,999,2513,.48209145E-3,.13033E-3,0
STARLINK-36611,2026-033K,2026-07-21T12:04:35.136480,15.27614771,.00030558,43.0028,231.8180,290.9729,69.0796,0,U,67830,999,2513,.82378429E-3,.22501E-3,0
STARLINK-36661,2026-033L,2026-07-21T10:24:53.462304,15.27585606,.00014214,42.9990,232.1631,272.0199,88.0490,0,U,67831,999,2512,.39728844E-3,.10688E-3,0
STARLINK-36662,2026-033M,2026-07-21T09:43:41.265408,15.27587875,.00019292,43.0016,224.8808,280.5031,79.5603,0,U,67832,999,2520,.29015928E-3,.7733E-4,0
STARLINK-36659,2026-033N,2026-07-21T03:05:20.885280,15.27600685,.00016611,42.9995,233.2883,278.2433,81.8230,0,U,67833,999,2508,.47188686E-3,.12754E-3,0
STARLINK-36655,2026-033P,2026-07-21T12:09:55.713312,15.27592746,.00012801,42.9979,230.9734,278.6626,81.4081,0,U,67834,999,2514,.45580935E-3,.12307E-3,0
STARLINK-36657,2026-033Q,2026-07-21T09:10:52.734720,15.27600219,.00017748,42.9986,231.7524,358.0884,1.9961,0,U,67835,999,2512,.6223815E-3,.16914E-3,0
STARLINK-36650,2026-033R,2026-07-21T09:58:58.143072,15.27592935,.00042511,43.0017,232.0189,270.3828,89.6536,0,U,67836,999,2512,.45871491E-3,.12389E-3,0
STARLINK-36649,2026-033S,2026-07-21T11:47:56.110560,15.27597892,.00019445,43.0018,231.7276,288.7152,71.3488,0,U,67837,999,2513,.38729644E-3,.10416E-3,0
STARLINK-36654,2026-033T,2026-07-21T11:27:35.174880,15.27596304,.0001185,43.0021,231.6211,282.3884,77.6835,0,U,67838,999,2513,.56100612E-3,.15215E-3,0
STARLINK-36652,2026-033U,2026-07-21T11:22:02.077824,15.27602602,.00028214,43.0053,231.5938,281.2163,78.8371,0,U,67839,999,2513,.48223145E-3,.13041E-3,0
STARLINK-36651,2026-033V,2026-07-21T09:42:18.250560,15.27625612,.00017534,43.0031,231.9299,275.3001,84.7651,0,U,67840,999,2512,.77667995E-3,.21202E-3,0
STARLINK-36656,2026-033W,2026-07-21T03:16:27.170976,15.27584476,.00012666,43.0023,233.3565,268.3410,91.7296,0,U,67841,999,2508,.31434167E-3,.8399E-4,0
STARLINK-36653,2026-033X,2026-07-21T11:01:40.580544,15.27595423,.00014804,43.0014,231.4805,274.2770,85.7913,0,U,67842,999,2513,.43022913E-3,.11601E-3,0
STARLINK-36589,2026-033Y,2026-07-21T09:16:25.395456,15.27596417,.0000978,42.9988,231.7875,273.9872,86.0868,0,U,67843,999,2512,.41660948E-3,.11225E-3,0
STARLINK-36598,2026-033Z,2026-07-21T10:21:09.889344,15.27587006,.00029652,42.9988,232.1362,245.2841,114.7702,0,U,67844,999,2512,.70661207E-3,.19238E-3,0
STARLINK-36606,2026-033AA,2026-07-21T09:12:43.507296,15.27584532,.00012488,42.9987,231.7607,279.2049,80.8661,0,U,67845,999,2512,.30645694E-3,.8182E-4,0
STARLINK-36658,2026-033AB,2026-07-21T10:10:04.917792,15.27588410,.00016197,42.9984,232.0774,274.4244,85.6423,0,U,67846,999,2512,.36098504E-3,.9687E-4,0
STARLINK-36618,2026-033AC,2026-07-21T08:53:13.901856,15.27586787,.00004603,42.9986,217.4821,288.6242,71.4560,0,U,67847,999,2528,.61585795E-3,.16727E-3,0
STARLINK-36660,2026-033AD,2026-07-21T03:49:45.234912,15.27595767,.00012808,42.9980,233.5314,268.0673,92.0032,0,U,67848,999,2508,.42057754E-3,.11335E-3,0
STARLINK-36602,2026-033AE,2026-07-21T10:26:43.433952,15.27607852,.00009509,42.9986,232.1647,293.8071,66.2681,0,U,67849,999,2512,.48482099E-3,.13114E-3,0
STARLINK-36840,2026-034A,2026-07-21T14:36:11.157408,15.30211719,.0001129,53.1598,301.9146,77.6951,282.4177,0,U,67850,999,2454,.40990197E-3,.11805E-3,0
STARLINK-36348,2026-034B,2026-07-21T13:33:51.580512,15.34411207,.00015302,53.1570,302.3613,93.8683,266.2494,0,U,67851,999,2453,.53083376E-3,.17607E-3,0
STARLINK-36276,2026-034C,2026-07-21T14:00:01.999872,15.34381140,.00019475,53.1586,302.4871,83.8769,272.0217,0,U,67852,999,586,.97444103E-4,.2915E-4,0
STARLINK-36785,2026-034D,2026-07-21T13:18:41.721120,15.34432967,.00020482,53.1588,302.2709,84.5097,275.6139,0,U,67853,999,2453,.91300185E-3,.3063E-3,0
STARLINK-36608,2026-034E,2026-07-20T07:34:52.413024,15.30200741,.00008626,53.1584,308.0408,75.6145,284.4952,0,U,67854,999,2433,.26698222E-3,.7556E-4,0
STARLINK-36838,2026-034F,2026-07-21T13:44:25.057536,15.31723137,.00019038,53.1590,301.6708,87.9926,272.1293,0,U,67855,999,2454,.78803843E-3,.24186E-3,0
STARLINK-36843,2026-034G,2026-07-20T23:45:29.691936,15.31728901,.00005113,53.1589,304.4489,78.0762,282.0297,0,U,67856,999,2445,.81504986E-3,.25035E-3,0
STARLINK-36828,2026-034H,2026-07-20T23:38:18.408192,15.31727141,.00037497,53.1585,304.3990,80.0385,280.1040,0,U,67857,999,2445,.75741164E-3,.23234E-3,0
STARLINK-36837,2026-034J,2026-07-20T23:41:07.831680,15.34409256,.00006891,53.1583,301.5938,81.9437,278.1644,0,U,67858,999,2449,.41330239E-3,.13618E-3,0
STARLINK-36393,2026-034K,2026-07-20T06:44:44.949120,15.31708369,.00011379,53.1569,307.1163,92.0936,268.0195,0,U,67859,999,2435,.25282536E-3,.749E-4,0
STARLINK-35873,2026-034L,2026-07-20T07:42:39.157920,15.34403930,.00008723,53.1597,308.0839,73.7458,286.3640,0,U,67860,999,2437,.35598403E-3,.11672E-3,0
STARLINK-36325,2026-034M,2026-07-20T23:38:47.561280,15.34412852,.00028455,53.1579,305.1155,79.6445,280.4878,0,U,67861,999,2444,.40029698E-3,.13178E-3,0
STARLINK-36332,2026-034N,2026-07-21T14:00:01.999872,15.32944813,.0001422,53.1588,302.5253,70.8254,251.5185,0,U,67862,999,592,.49121538E-1,.1760579E-1,0
STARLINK-36835,2026-034P,2026-07-21T15:41:33.799488,15.30199399,.00006743,53.1607,302.1792,94.0880,266.0198,0,U,67863,999,2454,.52067967E-3,.15093E-3,0
STARLINK-36831,2026-034Q,2026-07-21T10:14:08.537280,15.34406129,.00008509,53.1583,302.8920,79.5226,280.5872,0,U,67864,999,2451,.46383756E-3,.1533E-3,0
STARLINK-36738,2026-034R,2026-07-21T13:49:01.997184,15.32954142,.00086824,53.1580,302.3974,332.6612,27.3932,0,U,67865,999,2452,.12159424E-2,.3912E-3,0
STARLINK-36780,2026-034S,2026-07-21T13:49:14.011104,15.30216294,.00004835,53.1608,302.3979,339.7092,20.3889,0,U,67866,999,2453,.57531022E-3,.16727E-3,0
